     2.100          NAVIGATION                              RINEX VERSION / TYPE
fic2rin                                 03/12/2016 00:07:18 PGM / RUN BY / DATE
                                                            END OF HEADER
26 16  3 11 10  0  0.0 -.288170762360D-03 -.147792889038D-10  .000000000000D+00
     .420000000000D+02 -.521562500000D+02  .424660545959D-08  .212989185528D+01
    -.276975333691D-05  .939296558499D-03  .124871730804D-04  .515372760773D+04
     .468000000000D+06  .000000000000D+00 -.288981206416D+01  .260770320892D-07
     .960931768288D+00  .138468750000D+03 -.226233653940D-01 -.792747306822D-08
    -.161435295857D-09  .100000000000D+01  .188700000000D+04  .000000000000D+00
     .240000000000D+01  .000000000000D+00  .698491930962D-08  .420000000000D+02
     .460806000000D+06  .400000000000D+01
27 16  3 11 10  0  0.0  .709090381861D-04  .375166564481D-11  .000000000000D+00
     .110000000000D+02  .747500000000D+02  .449054419205D-08  .380016048622D+00
     .387988984585D-05  .335552555043D-02  .860728323460D-05  .515363454056D+04
     .468000000000D+06  .800937414169D-07 -.184066042843D+01  .633299350739D-07
     .970252597224D+00  .219625000000D+03  .211482054699D+00 -.817034032747D-08
     .665027701073D-09  .100000000000D+01  .188700000000D+04  .000000000000D+00
     .240000000000D+01  .000000000000D+00  .139698386192D-08  .110000000000D+02
     .460806000000D+06  .400000000000D+01
28 16  3 11 10  0  0.0  .508307479322D-03  .261479726760D-11  .000000000000D+00
     .107000000000D+03 -.765625000000D+02  .356229124087D-08  .109298957056D+01
    -.397674739361D-05  .198443233967D-01  .130850821733D-04  .515363538742D+04
     .468000000000D+06 -.288709998131D-06 -.280845388084D+01 -.275671482086D-06
     .989847161896D+00  .147218750000D+03 -.161942468928D+01 -.789247161027D-08
    -.150720563831D-09  .100000000000D+01  .188700000000D+04  .000000000000D+00
     .340000000000D+01  .000000000000D+00 -.107102096081D-07  .107000000000D+03
     .460806000000D+06  .400000000000D+01
29 16  3 11 10  0  0.0  .655693933368D-03  .568434188608D-12  .000000000000D+00
     .510000000000D+02  .700937500000D+02  .432982321166D-08  .284664946059D+01
     .360049307346D-05  .106955110095D-02  .804290175438D-05  .515360311127D+04
     .468000000000D+06 -.614672899246D-07 -.178154092888D+01  .651925802231D-07
     .976221980318D+00  .229468750000D+03 -.490039956634D+00 -.807855078978D-08
     .650027076237D-09  .100000000000D+01  .188700000000D+04  .000000000000D+00
     .240000000000D+01  .000000000000D+00 -.102445483208D-07  .510000000000D+02
     .460806000000D+06  .400000000000D+01
30 16  3 11 10  0  0.0  .105564948171D-03  .397903932026D-11  .000000000000D+00
     .560000000000D+02 -.477187500000D+02  .510164107526D-08 -.237997931453D+01
    -.248849391937D-05  .177405460272D-02  .315345823765D-05  .515362249184D+04
     .468000000000D+06 -.186264514923D-07  .242219802725D+01  .484287738800D-07
     .952842483771D+00  .315687500000D+03  .298772189134D+01 -.865750347691D-08
    -.272511351192D-09  .100000000000D+01  .188700000000D+04  .000000000000D+00
     .240000000000D+01  .000000000000D+00  .325962901115D-08  .560000000000D+02
     .460806000000D+06  .400000000000D+01
31 16  3 11 10  0  0.0  .278905965388D-03 -.170530256582D-11  .000000000000D+00
     .760000000000D+02 -.552500000000D+02  .463983612494D-08 -.257489246585D+01
    -.276975333691D-05  .828113255557D-02  .356324017048D-05  .515370320320D+04
     .468000000000D+06 -.108033418655D-06  .238595835727D+01  .540167093277D-07
     .971866712275D+00  .319125000000D+03 -.415375137013D+00 -.834534761723D-08
    -.327513642258D-09  .100000000000D+01  .188700000000D+04  .000000000000D+00
     .240000000000D+01  .000000000000D+00 -.135041773319D-07  .760000000000D+02
     .460806000000D+06  .400000000000D+01
32 16  3 11 10  0  0.0  .998610630631D-05  .113686837722D-12  .000000000000D+00
     .700000000000D+01  .110718750000D+03  .466519432407D-08 -.147435372452D+00
     .579841434956D-05  .269744778052D-04  .753998756409D-05  .515357980156D+04
     .468000000000D+06 -.204890966415D-07  .129959092239D+01  .558793544769D-07
     .959920262841D+00  .234593750000D+03 -.157915704113D+01 -.827284459718D-08
     .356086260993D-09  .100000000000D+01  .188700000000D+04  .000000000000D+00
     .240000000000D+01  .000000000000D+00  .279396772385D-08  .700000000000D+01
     .460806000000D+06  .400000000000D+01
17 16  3 11  9 59 44.0 -.201896298677D-03 -.568434188608D-12  .000000000000D+00
     .700000000000D+01  .628125000000D+02  .446161441558D-08  .330580791731D+00
     .315159559250D-05  .109784465749D-01  .883080065250D-05  .515365148354D+04
     .467984000000D+06 -.894069671631D-07 -.179119045210D+01  .465661287308D-07
     .975282384609D+00  .218218750000D+03 -.193843405062D+01 -.826212986516D-08
     .627526138983D-09  .100000000000D+01  .188700000000D+04  .000000000000D+00
     .240000000000D+01  .000000000000D+00 -.107102096081D-07  .700000000000D+01
     .462096000000D+06  .400000000000D+01
11 16  3 11  9 59 44.0 -.636194366962D-03 -.159161572810D-11  .000000000000D+00
     .130000000000D+02  .156875000000D+02  .662777607348D-08 -.238816245109D+01
     .860542058945D-06  .162298390642D-01  .208616256714D-05  .515364697266D+04
     .467984000000D+06  .201165676117D-06 -.115407482677D+01  .651925802231D-07
     .895581270543D+00  .298156250000D+03  .150682845194D+01 -.909645033224D-08
     .288583449230D-09  .100000000000D+01  .188700000000D+04  .000000000000D+00
     .240000000000D+01  .000000000000D+00 -.121071934700D-07  .130000000000D+02
     .463956000000D+06  .400000000000D+01
30 16  3 11  9 59 44.0  .105564016849D-03  .397903932026D-11  .000000000000D+00
     .700000000000D+01 -.477187500000D+02  .510164107526D-08 -.238231556837D+01
    -.248849391937D-05  .177405984141D-02  .315345823765D-05  .515362248611D+04
     .467984000000D+06 -.186264514923D-07  .242219817501D+01  .484287738800D-07
     .952842488160D+00  .315687500000D+03  .298772437099D+01 -.865750347691D-08
    -.272511351192D-09  .100000000000D+01  .188700000000D+04  .000000000000D+00
     .240000000000D+01  .000000000000D+00  .325962901115D-08  .700000000000D+01
     .466146000000D+06  .400000000000D+01
31 16  3 11  9 59 44.0  .278908759356D-03 -.170530256582D-11  .000000000000D+00
     .210000000000D+02 -.552500000000D+02  .463983612494D-08 -.257722573241D+01
    -.276975333691D-05  .828113011084D-02  .356324017048D-05  .515370319748D+04
     .467984000000D+06 -.108033418655D-06  .238595850356D+01  .540167093277D-07
     .971866750311D+00  .319125000000D+03 -.415375512983D+00 -.834534761723D-08
    -.327513642258D-09  .100000000000D+01  .188700000000D+04  .000000000000D+00
     .240000000000D+01  .000000000000D+00 -.135041773319D-07  .210000000000D+02
     .466206000000D+06  .400000000000D+01
11 16  3 11 11 59 44.0 -.636206008494D-03 -.159161572810D-11  .000000000000D+00
     .140000000000D+02  .147187500000D+02  .671920845343D-08 -.133796851256D+01
     .122375786304D-05  .162297160132D-01  .266917049885D-05  .515364649391D+04
     .475184000000D+06 -.409781932831D-07 -.115414065809D+01  .374391674995D-06
     .895581566053D+00  .294781250000D+03  .150684652776D+01 -.945896543245D-08
     .201794119821D-09  .100000000000D+01  .188700000000D+04  .000000000000D+00
     .240000000000D+01  .000000000000D+00 -.121071934700D-07  .140000000000D+02
     .468006000000D+06  .400000000000D+01
17 16  3 11 11 59 44.0 -.201900489628D-03 -.568434188608D-12  .000000000000D+00
     .250000000000D+02  .655937500000D+02  .435589572626D-08  .138078871868D+01
     .341795384884D-05  .109789737035D-01  .900030136108D-05  .515365190887D+04
     .475184000000D+06 -.221654772758D-06 -.179125026790D+01 -.521540641785D-07
     .975287333661D+00  .211125000000D+03 -.193844879391D+01 -.817569769348D-08
     .707886629177D-09  .100000000000D+01  .188700000000D+04  .000000000000D+00
     .240000000000D+01  .000000000000D+00 -.107102096081D-07  .250000000000D+02
     .468006000000D+06  .400000000000D+01
30 16  3 11 11 59 44.0  .105592422187D-03  .397903932026D-11  .000000000000D+00
     .800000000000D+01 -.497500000000D+02  .506378235543D-08 -.133212264364D+01
    -.265985727310D-05  .177423551213D-02  .317953526974D-05  .515362232018D+04
     .475184000000D+06 -.109896063805D-06  .242213640475D+01 -.186264514923D-07
     .952840388873D+00  .314312500000D+03  .298774770892D+01 -.862250201896D-08
    -.355729103259D-09  .100000000000D+01  .188700000000D+04  .000000000000D+00
     .240000000000D+01  .000000000000D+00  .325962901115D-08  .800000000000D+01
     .468006000000D+06  .400000000000D+01
31 16  3 11 11 59 44.0  .278896186501D-03 -.170530256582D-11  .000000000000D+00
     .220000000000D+02 -.448750000000D+02  .464269338681D-08 -.152690360276D+01
    -.236742198467D-05  .828048621770D-02  .347942113876D-05  .515370595169D+04
     .475184000000D+06 -.372529029846D-07  .238589729214D+01 -.109896063805D-06
     .971864175575D+00  .320906250000D+03 -.415534290797D+00 -.848142471395D-08
    -.238938524177D-09  .100000000000D+01  .188700000000D+04  .000000000000D+00
     .240000000000D+01  .000000000000D+00 -.135041773319D-07  .220000000000D+02
     .468006000000D+06  .400000000000D+01
 1 16  3 11 12  0  0.0  .140564516187D-04  .102318153949D-11  .000000000000D+00
     .780000000000D+02 -.482187500000D+02  .508378318855D-08 -.735353785454D+00
    -.245124101639D-05  .513506680727D-02  .439397990704D-05  .515364263725D+04
     .475200000000D+06  .726431608200D-07 -.782491330545D+00  .204890966415D-07
     .963825603114D+00  .295937500000D+03  .455687800609D+00 -.852356932659D-08
    -.212508851847D-09  .100000000000D+01  .188700000000D+04  .000000000000D+00
     .240000000000D+01  .000000000000D+00  .512227416039D-08  .780000000000D+02
     .468006000000D+06  .400000000000D+01
